start=new Date('2021-11-14T00:00:00.000Z').valueOf();
sats=[{"EPOCH":"2021-11-13T20:51:51.207552","CLASSIFICATION_TYPE":"U","TLE_LINE1":"1 46033U 20055G   21317.86934268  .00000474  00000-0  50732-4 0  9994","MEAN_ANOMALY":"281.1304","PERIAPSIS":"546.246","LAUNCH_DATE":"2020-08-07","OBJECT_NAME":"STARLINK-1556","SEMIMAJOR_AXIS":"6925.388","RCS_SIZE":"LARGE","DECAY_DATE":null,"CENTER_NAME":"EARTH","TIME_SYSTEM":"UTC","OBJECT_ID":"2020-055G","MEAN_ELEMENT_THEORY":"SGP4","EPHEMERIS_TYPE":"0","COUNTRY_CODE":"US","MEAN_MOTION":"15.06387006","BSTAR":"0.00005073200000","REV_AT_EPOCH":"7120","NORAD_CAT_ID":"46033","APOAPSIS":"548.260","INCLINATION":"53.0559","MEAN_MOTION_DDOT":"0.0000000000000","ARG_OF_PERICENTER":"78.9849","ELEMENT_SET_NO":"999","TLE_LINE2":"2 46033  53.0559   5.2424 0001454  78.9849 281.1304 15.06387006 71206","PERIOD":"95.593","OBJECT_TYPE":"PAYLOAD","MEAN_MOTION_DOT":"0.00000474","GP_ID":"189710464","RA_OF_ASC_NODE":"5.2424","ECCENTRICITY":"0.00014540","REF_FRAME":"TEME","FILE":"3214514","SITE":"AFETR"},{"OBJECT_ID":"2020-055H","COUNTRY_CODE":"US","EPHEMERIS_TYPE":"0","MEAN_MOTION":"15.06393130","MEAN_ELEMENT_THEORY":"SGP4","CENTER_NAME":"EARTH","DECAY_DATE":null,"TIME_SYSTEM":"UTC","OBJECT_NAME":"STARLINK-1557","RCS_SIZE":"LARGE","SEMIMAJOR_AXIS":"6925.370","LAUNCH_DATE":"2020-08-07","PERIAPSIS":"546.379","TLE_LINE1":"1 46034U 20055H   21317.87302321 -.00000173  00000-0  72553-5 0  9998","CLASSIFICATION_TYPE":"U","MEAN_ANOMALY":"280.2295","EPOCH":"2021-11-13T20:57:09.205344","SITE":"AFETR","FILE":"3214514","REF_FRAME":"TEME","ECCENTRICITY":"0.00012360","RA_OF_ASC_NODE":"5.2353","GP_ID":"189710715","TLE_LINE2":"2 46034  53.0559   5.2353 0001236  79.8833 280.2295 15.06393130 71203","PERIOD":"95.593","ARG_OF_PERICENTER":"79.8833","ELEMENT_SET_NO":"999","OBJECT_TYPE":"PAYLOAD","MEAN_MOTION_DOT":"-0.00000173","APOAPSIS":"548.091","NORAD_CAT_ID":"46034","INCLINATION":"53.0559","MEAN_MOTION_DDOT":"0.0000000000000","BSTAR":"0.00000725530000","REV_AT_EPOCH":"7120"},{"NORAD_CAT_ID":"46035","APOAPSIS":"548.128","INCLINATION":"53.0550","MEAN_MOTION_DDOT":"0.0000000000000","BSTAR":"0.00015428000000","REV_AT_EPOCH":"7119","REF_FRAME":"TEME","FILE":"3214514","SITE":"AFETR","RA_OF_ASC_NODE":"6.3841","ECCENTRICITY":"0.00013310","GP_ID":"189709463","ELEMENT_SET_NO":"999","ARG_OF_PERICENTER":"58.6959","PERIOD":"95.592","TLE_LINE2":"2 46035  53.0550   6.3841 0001331  58.6959 301.4160 15.06402357 71196","MEAN_MOTION_DOT":"0.00002017","OBJECT_TYPE":"PAYLOAD","PERIAPSIS":"546.285","CLASSIFICATION_TYPE":"U","TLE_LINE1":"1 46035U 20055J   21317.61499881  .00002017  00000-0  15428-3 0  9993","MEAN_ANOMALY":"301.4160","EPOCH":"2021-11-13T14:45:35.897184","OBJECT_ID":"2020-055J","MEAN_ELEMENT_THEORY":"SGP4","COUNTRY_CODE":"US","MEAN_MOTION":"15.06402357","EPHEMERIS_TYPE":"0","DECAY_DATE":null,"CENTER_NAME":"EARTH","TIME_SYSTEM":"UTC","OBJECT_NAME":"STARLINK-1558","RCS_SIZE":"LARGE","SEMIMAJOR_AXIS":"6925.341","LAUNCH_DATE":"2020-08-07"},{"TLE_LINE1":"1 46036U 20055K   21317.86564487  .00001081  00000-0  91445-4 0  9990","CLASSIFICATION_TYPE":"U","MEAN_ANOMALY":"277.7646","EPOCH":"2021-11-13T20:46:31.716768","PERIAPSIS":"546.093","OBJECT_NAME":"STARLINK-1560","RCS_SIZE":"LARGE","SEMIMAJOR_AXIS":"6925.349","LAUNCH_DATE":"2020-08-07","OBJECT_ID":"2020-055K","COUNTRY_CODE":"US","MEAN_MOTION":"15.06399724","EPHEMERIS_TYPE":"0","MEAN_ELEMENT_THEORY":"SGP4","CENTER_NAME":"EARTH","DECAY_DATE":null,"TIME_SYSTEM":"UTC","APOAPSIS":"548.336","NORAD_CAT_ID":"46036","INCLINATION":"53.0538","MEAN_MOTION_DDOT":"0.0000000000000","BSTAR":"0.00009144500000","REV_AT_EPOCH":"7123","GP_ID":"189709713","PERIOD":"95.592","TLE_LINE2":"2 46036  53.0538   5.2569 0001619  82.3527 277.7646 15.06399724 71234","ELEMENT_SET_NO":"999","ARG_OF_PERICENTER":"82.3527","OBJECT_TYPE":"PAYLOAD","MEAN_MOTION_DOT":"0.00001081","FILE":"3214514","SITE":"AFETR","REF_FRAME":"TEME","ECCENTRICITY":"0.00016190","RA_OF_ASC_NODE":"5.2569"},{"MEAN_MOTION_DDOT":"0.0000000000000","APOAPSIS":"548.357","NORAD_CAT_ID":"46037","INCLINATION":"53.0557","REV_AT_EPOCH":"7122","BSTAR":"-0.00005361100000","GP_ID":"189710965","OBJECT_TYPE":"PAYLOAD","MEAN_MOTION_DOT":"-0.00001080","PERIOD":"95.592","TLE_LINE2":"2 46037  53.0557   5.2833 0001637  69.2718 290.8447 15.06396800 71222","ELEMENT_SET_NO":"999","ARG_OF_PERICENTER":"69.2718","SITE":"AFETR","FILE":"3214514","REF_FRAME":"TEME","RA_OF_ASC_NODE":"5.2833","ECCENTRICITY":"0.00016370","MEAN_ANOMALY":"290.8447","TLE_LINE1":"1 46037U 20055L   21317.86195322 -.00001080  00000-0 -53611-4 0  9993","CLASSIFICATION_TYPE":"U","EPOCH":"2021-11-13T20:41:12.758208","PERIAPSIS":"546.090","SEMIMAJOR_AXIS":"6925.358","RCS_SIZE":"LARGE","OBJECT_NAME":"STARLINK-1565","LAUNCH_DATE":"2020-08-07","COUNTRY_CODE":"US","EPHEMERIS_TYPE":"0","MEAN_MOTION":"15.06396800","MEAN_ELEMENT_THEORY":"SGP4","OBJECT_ID":"2020-055L","TIME_SYSTEM":"UTC","CENTER_NAME":"EARTH","DECAY_DATE":null},{"PERIAPSIS":"546.146","MEAN_ANOMALY":"294.5831","TLE_LINE1":"1 46038U 20055M   21317.87669894  .00001701  00000-0  13304-3 0  9997","CLASSIFICATION_TYPE":"U","EPOCH":"2021-11-13T21:02:26.788416","MEAN_MOTION":"15.06399613","COUNTRY_CODE":"US","EPHEMERIS_TYPE":"0","MEAN_ELEMENT_THEORY":"SGP4","OBJECT_ID":"2020-055M","TIME_SYSTEM":"UTC","CENTER_NAME":"EARTH","DECAY_DATE":null,"SEMIMAJOR_AXIS":"6925.350","RCS_SIZE":"LARGE","OBJECT_NAME":"STARLINK-1567","LAUNCH_DATE":"2020-08-07","MEAN_MOTION_DDOT":"0.0000000000000","NORAD_CAT_ID":"46038","APOAPSIS":"548.283","INCLINATION":"53.0559","REV_AT_EPOCH":"7122","BSTAR":"0.00013304000000","SITE":"AFETR","FILE":"3214514","REF_FRAME":"TEME","RA_OF_ASC_NODE":"5.2184","ECCENTRICITY":"0.00015430","GP_ID":"189711216","MEAN_MOTION_DOT":"0.00001701","OBJECT_TYPE":"PAYLOAD","TLE_LINE2":"2 46038  53.0559   5.2184 0001543  65.5318 294.5831 15.06399613 71228","PERIOD":"95.592","ELEMENT_SET_NO":"999","ARG_OF_PERICENTER":"65.5318"},{"PERIAPSIS":"546.306","MEAN_ANOMALY":"289.4873","CLASSIFICATION_TYPE":"U","TLE_LINE1":"1 46039U 20055N   21317.55234557 -.00001472  00000-0 -79916-4 0  9996","EPOCH":"2021-11-13T13:15:22.657248","MEAN_ELEMENT_THEORY":"SGP4","COUNTRY_CODE":"US","MEAN_MOTION":"15.06400434","EPHEMERIS_TYPE":"0","OBJECT_ID":"2020-055N","TIME_SYSTEM":"UTC","DECAY_DATE":null,"CENTER_NAME":"EARTH","RCS_SIZE":"LARGE","SEMIMAJOR_AXIS":"6925.347","OBJECT_NAME":"STARLINK-1569","LAUNCH_DATE":"2020-08-07","MEAN_MOTION_DDOT":"0.0000000000000","INCLINATION":"53.0551","APOAPSIS":"548.118","NORAD_CAT_ID":"46039","REV_AT_EPOCH":"7117","BSTAR":"-0.00007991600000","REF_FRAME":"TEME","FILE":"3214083","SITE":"AFETR","RA_OF_ASC_NODE":"6.6747","ECCENTRICITY":"0.00013080","GP_ID":"189677555","MEAN_MOTION_DOT":"-0.00001472","OBJECT_TYPE":"PAYLOAD","ARG_OF_PERICENTER":"70.6258","ELEMENT_SET_NO":"999","PERIOD":"95.592","TLE_LINE2":"2 46039  53.0551   6.6747 0001308  70.6258 289.4873 15.06400434 71177"},{"PERIAPSIS":"546.294","TLE_LINE1":"1 46040U 20055P   21317.84722300 -.00000057  00000-0  15090-4 0  9998","CLASSIFICATION_TYPE":"U","MEAN_ANOMALY":"285.7454","EPOCH":"2021-11-13T20:20:00.067200","OBJECT_ID":"2020-055P","COUNTRY_CODE":"US","MEAN_MOTION":"15.06393252","EPHEMERIS_TYPE":"0","MEAN_ELEMENT_THEORY":"SGP4","CENTER_NAME":"EARTH","DECAY_DATE":null,"TIME_SYSTEM":"UTC","OBJECT_NAME":"STARLINK-1576","RCS_SIZE":"LARGE","SEMIMAJOR_AXIS":"6925.369","LAUNCH_DATE":"2020-08-07","APOAPSIS":"548.175","NORAD_CAT_ID":"46040","INCLINATION":"53.0564","MEAN_MOTION_DDOT":"0.0000000000000","BSTAR":"0.00001509000000","REV_AT_EPOCH":"7118","FILE":"3214514","SITE":"AFETR","REF_FRAME":"TEME","RA_OF_ASC_NODE":"5.3514","ECCENTRICITY":"0.00013580","GP_ID":"189710214","TLE_LINE2":"2 46040  53.0564   5.3514 0001358  74.3685 285.7454 15.06393252 71185","PERIOD":"95.593","ARG_OF_PERICENTER":"74.3685","ELEMENT_SET_NO":"999","OBJECT_TYPE":"PAYLOAD","MEAN_MOTION_DOT":"-0.00000057"},{"GP_ID":"189710465","OBJECT_TYPE":"PAYLOAD","MEAN_MOTION_DOT":"0.00002242","ARG_OF_PERICENTER":"75.4486","ELEMENT_SET_NO":"999","PERIOD":"95.592","TLE_LINE2":"2 46041  53.0566   5.3387 0001274  75.4486 284.6644 15.06400532 71194","REF_FRAME":"TEME","FILE":"3214514","SITE":"AFETR","ECCENTRICITY":"0.00012740","RA_OF_ASC_NODE":"5.3387","MEAN_MOTION_DDOT":"0.0000000000000","NORAD_CAT_ID":"46041","APOAPSIS":"548.094","INCLINATION":"53.0566","REV_AT_EPOCH":"7119","BSTAR":"0.00016932000000","RCS_SIZE":"LARGE","SEMIMAJOR_AXIS":"6925.347","OBJECT_NAME":"STARLINK-1580","LAUNCH_DATE":"2020-08-07","MEAN_ELEMENT_THEORY":"SGP4","EPHEMERIS_TYPE":"0","COUNTRY_CODE":"US","MEAN_MOTION":"15.06400532","OBJECT_ID":"2020-055Q","TIME_SYSTEM":"UTC","DECAY_DATE":null,"CENTER_NAME":"EARTH","MEAN_ANOMALY":"284.6644","CLASSIFICATION_TYPE":"U","TLE_LINE1":"1 46041U 20055Q   21317.84995368  .00002242  00000-0  16932-3 0  9997","EPOCH":"2021-11-13T20:23:55.997952","PERIAPSIS":"546.330"},{"GP_ID":"189710716","PERIOD":"95.592","TLE_LINE2":"2 46042  53.0563   5.4143 0001378  68.8699 291.2437 15.06394943 71181","ARG_OF_PERICENTER":"68.8699","ELEMENT_SET_NO":"999","OBJECT_TYPE":"PAYLOAD","MEAN_MOTION_DOT":"0.00000622","SITE":"AFETR","FILE":"3214514","REF_FRAME":"TEME","ECCENTRICITY":"0.00013780","RA_OF_ASC_NODE":"5.4143","APOAPSIS":"548.183","INCLINATION":"53.0563","NORAD_CAT_ID":"46042","MEAN_MOTION_DDOT":"0.0000000000000","BSTAR":"0.00006067200000","REV_AT_EPOCH":"7118","OBJECT_NAME":"STARLINK-1581","RCS_SIZE":"LARGE","SEMIMAJOR_AXIS":"6925.364","LAUNCH_DATE":"2020-08-07","OBJECT_ID":"2020-055R","EPHEMERIS_TYPE":"0","COUNTRY_CODE":"US","MEAN_MOTION":"15.06394943","MEAN_ELEMENT_THEORY":"SGP4","CENTER_NAME":"EARTH","DECAY_DATE":null,"TIME_SYSTEM":"UTC","TLE_LINE1":"1 46042U 20055R   21317.83246969  .00000622  00000-0  60672-4 0  9994","CLASSIFICATION_TYPE":"U","MEAN_ANOMALY":"291.2437","EPOCH":"2021-11-13T19:58:45.381216","PERIAPSIS":"546.275"}];
